NORAD_CAT_ID,OBJECT_NAME,OBJECT_TYPE,EPOCH,MEAN_MOTION,ECCENTRICITY,INCLINATION,RA_OF_ASC_NODE,ARG_OF_PERICENTER,MEAN_ANOMALY,BSTAR,MEAN_MOTION_DOT,MEAN_MOTION_DDOT,TLE_LINE0,TLE_LINE1,TLE_LINE2,SEMIMAJOR_AXIS,PERIOD,APOGEE,PERIGEE,DECAYED
52839.0,STARLINK-4048,PAYLOAD,2023-10-15 12:22:10,15.08828741,0.0001491,53.2187,7.4236,101.3456,258.7704,3.8074e-05,3.18e-06,0.0,0 STARLINK-4048,1 52839U 22062K   23288.51540011  .00000318  00000-0  38074-4 0  9997,2 52839  53.2187   7.4236 0001491 101.3456 258.7704 15.08828741 74000,6917.915,95.438,540.811,538.748,0.0
52839.0,STARLINK-4048,PAYLOAD,2023-10-16 12:12:57,15.08858493,0.0001377,53.2175,2.9649,107.5199,252.5944,0.0012626,0.00019874,0.0,0 STARLINK-4048,1 52839U 22062K   23289.50900300  .00019874  00000-0  12626-2 0  9998,2 52839  53.2175   2.9649 0001377 107.5199 252.5944 15.08858493 74151,6917.824,95.436,540.641,538.736,0.0
52839.0,STARLINK-4048,PAYLOAD,2023-10-17 12:03:44,15.0886233,0.0001513,53.2164,358.5047,106.1421,253.9738,0.00091788,0.00014359,0.0,0 STARLINK-4048,1 52839U 22062K   23290.50259999  .00014359  00000-0  91788-3 0  9991,2 52839  53.2164 358.5047 0001513 106.1421 253.9738 15.08862330 74304,6917.812,95.436,540.724,538.63,0.0
52839.0,STARLINK-4048,PAYLOAD,2023-10-17 13:39:07,15.08863128,0.0001497,53.2163,358.2076,102.4432,257.6727,0.00094351,0.00014769,0.0,0 STARLINK-4048,1 52839U 22062K   23290.56883956  .00014769  00000-0  94351-3 0  9997,2 52839  53.2163 358.2076 0001497 102.4432 257.6727 15.08863128 73825,6917.81,95.436,540.71,538.639,0.0
52839.0,STARLINK-4048,PAYLOAD,2023-10-17 21:36:03,15.08850212,0.0001932,53.2166,356.7207,89.8537,270.2676,0.00072829,0.00011325,0.0,0 STARLINK-4048,1 52839U 22062K   23290.90003946  .00011325  00000-0  72829-3 0  9999,2 52839  53.2166 356.7207 0001932  89.8537 270.2676 15.08850212 73874,6917.849,95.437,541.051,538.378,0.0
52839.0,STARLINK-4048,PAYLOAD,2023-10-18 11:54:31,15.08845815,0.0001592,53.2161,354.0441,89.4432,270.6743,0.00098275,0.0001539,0.0,0 STARLINK-4048,1 52839U 22062K   23291.49620209  .00015390  00000-0  98275-3 0  9990,2 52839  53.2161 354.0441 0001592  89.4432 270.6743 15.08845815 74459,6917.863,95.437,540.829,538.626,0.0
52839.0,STARLINK-4048,PAYLOAD,2023-10-18 21:26:50,15.0884694,0.0001368,53.2159,352.2593,94.614,265.5008,0.00076817,0.00011961,0.0,0 STARLINK-4048,1 52839U 22062K   23291.89364126  .00011961  00000-0  76817-3 0  9995,2 52839  53.2159 352.2593 0001368  94.6140 265.5008 15.08846940 74029,6917.859,95.437,540.671,538.778,0.0
52839.0,STARLINK-4048,PAYLOAD,2023-10-19 13:20:41,15.08863828,0.0001683,53.2163,349.2807,94.084,266.0345,0.00087465,0.00013668,0.0,0 STARLINK-4048,1 52839U 22062K   23292.55603580  .00013668  00000-0  87465-3 0  9996,2 52839  53.2163 349.2807 0001683  94.0840 266.0345 15.08863828 74124,6917.808,95.436,540.837,538.508,0.0
52839.0,STARLINK-4048,PAYLOAD,2023-10-19 21:17:37,15.08847377,0.0001749,53.2162,347.7982,85.9303,274.1889,0.0003306,4.978e-05,0.0,0 STARLINK-4048,1 52839U 22062K   23292.88723931  .00004978  00000-0  33060-3 0  9991,2 52839  53.2162 347.7982 0001749  85.9303 274.1889 15.08847377 74175,6917.858,95.437,540.933,538.513,0.0
52839.0,STARLINK-4048,PAYLOAD,2023-10-20 10:00:42,15.08838602,0.0001938,53.2173,345.4129,110.2058,249.9142,4.1541e-05,3.73e-06,0.0,0 STARLINK-4048,1 52839U 22062K   23293.41716053  .00000373  00000-0  41541-4 0  9997,2 52839  53.2173 345.4129 0001938 110.2058 249.9142 15.08838602 74740,6917.885,95.438,541.09,538.409,0.0
52839.0,STARLINK-4048,PAYLOAD,2023-10-20 13:11:29,15.0883849,0.0001795,53.2161,344.8223,93.3203,266.7995,5.0584e-05,5.17e-06,0.0,0 STARLINK-4048,1 52839U 22062K   23293.54964277  .00000517  00000-0  50584-4 0  9991,2 52839  53.2161 344.8223 0001795  93.3203 266.7995 15.08838490 74275,6917.885,95.438,540.992,538.508,0.0
52839.0,STARLINK-4048,PAYLOAD,2023-10-21 09:51:29,15.0884604,0.0001535,53.216,340.9572,100.0998,260.0168,0.00018016,2.581e-05,0.0,0 STARLINK-4048,1 52839U 22062K   23294.41076279  .00002581  00000-0  18016-3 0  9990,2 52839  53.2160 340.9572 0001535 100.0998 260.0168 15.08846040 74401,6917.862,95.437,540.789,538.665,0.0
52839.0,STARLINK-4048,PAYLOAD,2023-10-22 03:20:44,15.08836141,0.0001581,53.2158,337.6856,98.5132,261.604,0.00016281,2.304e-05,0.0,0 STARLINK-4048,1 52839U 22062K   23295.13940913  .00002304  00000-0  16281-3 0  9990,2 52839  53.2158 337.6856 0001581  98.5132 261.6040 15.08836141 75002,6917.892,95.438,540.851,538.663,0.0
52839.0,STARLINK-4048,PAYLOAD,2023-10-22 09:42:17,15.08837093,0.0001499,53.2168,336.5001,82.7523,277.364,0.00017536,2.504e-05,0.0,0 STARLINK-4048,1 52839U 22062K   23295.40436989  .00002504  00000-0  17536-3 0  9999,2 52839  53.2168 336.5001 0001499  82.7523 277.3640 15.08837093 74556,6917.889,95.438,540.791,538.717,0.0
52839.0,STARLINK-4048,PAYLOAD,2023-10-23 09:33:04,15.08839004,0.0001336,53.2157,332.0355,83.5986,276.5159,6.7265e-05,7.83e-06,0.0,0 STARLINK-4048,1 52839U 22062K   23296.39797081  .00000783  00000-0  67265-4 0  9993,2 52839  53.2157 332.0355 0001336  83.5986 276.5159 15.08839004 75190,6917.883,95.438,540.673,538.824,0.0
52839.0,STARLINK-4048,PAYLOAD,2023-10-23 19:05:23,15.08840858,0.0001377,53.2162,330.252,82.673,277.4418,4.9003e-05,4.92e-06,0.0,0 STARLINK-4048,1 52839U 22062K   23296.79541002  .00000492  00000-0  49003-4 0  9994,2 52839  53.2162 330.2520 0001377  82.6730 277.4418 15.08840858 74761,6917.878,95.438,540.695,538.79,0.0
52839.0,STARLINK-4048,PAYLOAD,2023-10-24 09:23:52,15.08838407,0.0001463,53.2169,327.5782,87.6625,272.4535,0.00010604,1.4e-05,0.0,0 STARLINK-4048,1 52839U 22062K   23297.39157418  .00001400  00000-0  10604-3 0  9999,2 52839  53.2169 327.5782 0001463  87.6625 272.4535 15.08838407 74853,6917.885,95.438,540.762,538.738,0.0
52839.0,STARLINK-4048,PAYLOAD,2023-10-25 10:50:01,15.08849414,0.0001512,53.2172,322.8192,93.9982,266.1183,0.00020257,2.938e-05,0.0,0 STARLINK-4048,1 52839U 22062K   23298.45140803  .00002938  00000-0  20257-3 0  9999,2 52839  53.2172 322.8192 0001512  93.9982 266.1183 15.08849414 75503,6917.852,95.437,540.763,538.671,0.0
52839.0,STARLINK-4048,PAYLOAD,2023-10-26 10:40:48,15.08846212,0.0001568,53.2156,318.3578,87.659,272.4582,0.00010894,1.446e-05,0.0,0 STARLINK-4048,1 52839U 22062K   23299.44500930  .00001446  00000-0  10894-3 0  9999,2 52839  53.2156 318.3578 0001568  87.6590 272.4582 15.08846212 75651,6917.861,95.437,540.811,538.642,0.0
52839.0,STARLINK-4048,PAYLOAD,2023-10-27 07:20:49,15.08847655,0.0001503,53.2152,314.4911,93.0604,267.056,9.9681e-05,1.299e-05,0.0,0 STARLINK-4048,1 52839U 22062K   23300.30612738  .00001299  00000-0  99681-4 0  9995,2 52839  53.2152 314.4911 0001503  93.0604 267.0560 15.08847655 75299,6917.857,95.437,540.762,538.682,0.0
52839.0,STARLINK-4048,PAYLOAD,2023-10-27 18:28:31,15.08846426,0.0001532,53.2149,312.41,93.0418,267.075,7.5869e-05,9.2e-06,0.0,0 STARLINK-4048,1 52839U 22062K   23300.76980759  .00000920  00000-0  75869-4 0  9998,2 52839  53.2149 312.4100 0001532  93.0418 267.0750 15.08846426 75856,6917.861,95.437,540.786,538.666,0.0
52839.0,STARLINK-4048,PAYLOAD,2023-10-28 10:22:23,15.08838682,0.0001795,53.217,309.4334,102.3176,257.8017,1.4324e-05,-6e-07,0.0,0 STARLINK-4048,1 52839U 22062K   23301.43221282 -.00000060  00000-0  14324-4 0  9997,2 52839  53.2170 309.4334 0001795 102.3176 257.8017 15.08838682 75950,6917.884,95.438,540.991,538.508,0.0
52839.0,STARLINK-4048,PAYLOAD,2023-10-28 18:19:19,15.08832744,0.0001779,53.2167,307.9452,106.8565,253.2622,-3.1176e-05,-7.84e-06,0.0,0 STARLINK-4048,1 52839U 22062K   23301.76341692 -.00000784  00000-0 -31176-4 0  9999,2 52839  53.2167 307.9452 0001779 106.8565 253.2622 15.08832744 75510,6917.903,95.438,540.998,538.537,0.0
52839.0,STARLINK-4048,PAYLOAD,2023-10-29 07:02:23,15.0884546,0.0001594,53.2158,305.5675,98.6748,261.4425,9.9237e-05,1.292e-05,0.0,0 STARLINK-4048,1 52839U 22062K   23302.29333201  .00001292  00000-0  99237-4 0  9990,2 52839  53.2158 305.5675 0001594  98.6748 261.4425 15.08845460 75596,6917.864,95.437,540.831,538.626,0.0
52839.0,STARLINK-4048,PAYLOAD,2023-10-30 05:17:48,15.08837755,0.000165,53.2157,301.4039,101.1118,259.006,0.00014628,2.041e-05,0.0,0 STARLINK-4048,1 52839U 22062K   23303.22069849  .00002041  00000-0  14628-3 0  9991,2 52839  53.2157 301.4039 0001650 101.1118 259.0060 15.08837755 76225,6917.887,95.438,540.894,538.611,0.0
52839.0,STARLINK-4048,PAYLOAD,2023-10-30 16:25:31,15.08829086,0.0002401,53.2151,299.3219,82.511,277.6155,-5.3245e-06,-3.73e-06,0.0,0 STARLINK-4048,1 52839U 22062K   23303.68438735 -.00000373  00000-0 -53245-5 0  9993,2 52839  53.2151 299.3219 0002401  82.5110 277.6155 15.08829086 76299,6917.914,95.438,541.44,538.118,0.0
52839.0,STARLINK-4048,PAYLOAD,2023-10-31 05:08:35,15.08839914,0.0001612,53.2164,296.9443,87.8307,272.287,0.00010221,1.339e-05,0.0,0 STARLINK-4048,1 52839U 22062K   23304.21429975  .00001339  00000-0  10221-3 0  9995,2 52839  53.2164 296.9443 0001612  87.8307 272.2870 15.08839914 76379,6917.881,95.438,540.861,538.63,0.0
52839.0,STARLINK-4048,PAYLOAD,2023-10-31 06:43:58,15.08845105,0.0001684,53.2167,296.6498,95.9351,264.1833,0.00016165,2.286e-05,0.0,0 STARLINK-4048,1 52839U 22062K   23304.28053716  .00002286  00000-0  16165-3 0  9993,2 52839  53.2167 296.6498 0001684  95.9351 264.1833 15.08845105 75891,6917.865,95.437,540.895,538.565,0.0
52839.0,STARLINK-4048,PAYLOAD,2023-10-31 16:16:17,15.08839067,0.0001592,53.2163,294.8668,94.0163,266.1011,7.4413e-05,8.96e-06,0.0,0 STARLINK-4048,1 52839U 22062K   23304.67797987  .00000896  00000-0  74413-4 0  9997,2 52839  53.2163 294.8668 0001592  94.0163 266.1011 15.08839067 75952,6917.883,95.438,540.85,538.647,0.0
52839.0,STARLINK-4048,PAYLOAD,2023-11-01 06:34:45,15.08840127,0.0001576,53.2164,292.1915,98.455,261.6621,5.7976e-05,6.35e-06,0.0,0 STARLINK-4048,1 52839U 22062K   23305.27414135  .00000635  00000-0  57976-4 0  9991,2 52839  53.2164 292.1915 0001576  98.4550 261.6621 15.08840127 76530,6917.88,95.438,540.835,538.655,0.0
